KNACKSAT-2              
1 67683U 98067XZ  26167.64582772  .00039403  00000+0  48230-3 0  9991
2 67683  51.6312 297.1999 0009189 212.7793 147.2631 15.59934910 20196
INNOSAT 3 (RS92S0)      
1 64894U 25155U   26168.50707355  .00029057  00000+0  64084-3 0  9991
2 64894  97.4490 140.0106 0006590 150.3091 209.8532 15.43844804 81017
